STARLINK-1749           
1 46589U 20070BK  21041.58334491 -.00033186  00000-0 -22707-2 0  9999
2 46589  53.0425 195.5772 0004693 357.6584  47.5015 15.05544064  1769
STARLINK-1754           
1 46590U 20070BL  21041.91667824  .00025400  00000-0  31235-3 0  9992
2 46590  53.0015 178.6295 0008917  41.3877 268.9943 15.60083768 20729
STARLINK-1755           
1 46591U 20070BM  21041.91667824  .00025662  00000-0  17363-2 0  9998
2 46591  53.0845 193.8747 0000897 111.4295 297.5082 15.06381765 20533
STARLINK-1715           
1 46671U 20073B   21041.58334491  .00043062  00000-0  28948-2 0  9999
2 46671  53.0526 285.5217 0001967  86.2834 284.0913 15.06366490  1818
STARLINK-1716           
1 46672U 20073C   21041.58334491  .00032641  00000-0  22018-2 0  9993
2 46672  53.0588 280.4931 0002410  83.0063  69.8046 15.06369873  1754
STARLINK-1717           
1 46673U 20073D   21041.58334491  .00044718  00000-0  30042-2 0  9998
2 46673  53.0561 295.5416 0002476  76.4283 239.0073 15.06372365  1800
STARLINK-1718           
1 46674U 20073E   21041.58334491  .00032138  00000-0  21673-2 0  9992
2 46674  53.0517 280.5225 0002366  83.1122 289.7631 15.06387569  1814
STARLINK-1720           
1 46675U 20073F   21041.58334491  .00039823  00000-0  26784-2 0  9999
2 46675  53.0522 280.5229 0002553  77.0900 315.7221 15.06383856  1819
STARLINK-1731           
1 46676U 20073G   21041.58334491 -.00542128  00000-0 -10396-1 0  9990
2 46676  53.0524 266.4854 0003333 288.7459 327.4633 15.49390178  1815
STARLINK-1766           
1 46677U 20073H   21041.58334491  .00038593  00000-0  25977-2 0  9997
2 46677  53.0537 280.5277 0002286  75.3982 337.3627 15.06369606  1811
STARLINK-1773           
1 46679U 20073K   21041.91667824 -.00374219  00000-0 -70332-2 0  9990
2 46679  53.0541 264.7636 0005913 267.7560 109.8925 15.49329712 18553
STARLINK-1774           
1 46680U 20073L   21041.58334491  .00046071  00000-0  30941-2 0  9998
2 46680  53.0553 295.5427 0002798  72.3776 297.9468 15.06369491  1818
STARLINK-1775           
1 46681U 20073M   21041.58334491  .00035118  00000-0  23668-2 0  9997
2 46681  53.0520 295.5371 0002701  76.5108  93.7871 15.06366770  1750
STARLINK-1776           
1 46682U 20073N   21041.58334491  .00046012  00000-0  30897-2 0  9995
2 46682  53.0542 295.5386 0002858  79.3060 310.9474 15.06375617  1766
STARLINK-1778           
1 46683U 20073P   21041.58334491  .00037586  00000-0  25313-2 0  9999
2 46683  53.0306 295.6516 0002363  80.3780  49.9391 15.06361834  1755
STARLINK-1780           
1 46684U 20073Q   21041.58334491  .00036110  00000-0  24318-2 0  9996
2 46684  53.0555 280.5317 0002519  95.2745 357.5037 15.06381888  1759
STARLINK-1781           
1 46685U 20073R   21041.58334491  .00036041  00000-0  24281-2 0  9999
2 46685  53.0486 295.5460 0002495  77.7201  72.5779 15.06368539  1758
STARLINK-1783           
1 46686U 20073S   21041.58334491  .00038722  00000-0  26058-2 0  9992
2 46686  53.0536 295.5398 0002279  77.0112 173.2991 15.06376593  1809
STARLINK-1784           
1 46687U 20073T   21041.91667824 -.00081185  00000-0 -11541-2 0  9993
2 46687  53.0525 264.6449 0008231 291.0951 147.0920 15.55883016 18553
STARLINK-1786           
1 46688U 20073U   21041.58334491  .00041690  00000-0  28033-2 0  9997
2 46688  53.0540 295.5389 0002911  80.2589   9.9870 15.06370484  1751
STARLINK-1788           
1 46689U 20073V   21041.58334491  .00034720  00000-0  23392-2 0  9997
2 46689  53.0536 295.5347 0002563  76.7117 113.6606 15.06385316  1751
STARLINK-1789           
1 46690U 20073W   21041.58334491  .00027407  00000-0  18526-2 0  9996
2 46690  53.0436 270.6394 0001793  82.7842 104.8792 15.06381222  1754
STARLINK-1790           
1 46691U 20073X   21041.58334491  .00031652  00000-0  21357-2 0  9990
2 46691  53.0430 280.5873 0002573  80.2352 112.5726 15.06374373  1759
STARLINK-1791           
1 46692U 20073Y   21041.58334491  .00040483  00000-0  27227-2 0  9995
2 46692  53.0551 295.5393 0002607  79.1937 191.1012 15.06377058  1755
STARLINK-1792           
1 46693U 20073Z   21041.58334491  .00032045  00000-0  21612-2 0  9993
2 46693  53.0355 280.6153 0002589  84.8553  87.9051 15.06385729  1808
STARLINK-1793           
1 46694U 20073AA  21041.91667824 -.00385129  00000-0 -72156-2 0  9995
2 46694  53.0518 264.7507 0006154 266.5612 115.7655 15.49455214 18557
STARLINK-1794           
1 46695U 20073AB  21041.58334491  .00039929  00000-0  26857-2 0  9999
2 46695  53.0546 295.5368 0002120  57.4993  52.8347 15.06380618  1755
STARLINK-1795           
1 46696U 20073AC  21041.91667824 -.00005648  00000-0 -73121-4 0  9997
2 46696  53.0531 264.7226 0008453 299.1302 102.6341 15.55843359 18559
STARLINK-1796           
1 46697U 20073AD  21041.58334491  .00043389  00000-0  29154-2 0  9999
2 46697  53.0538 295.5374 0003369  80.1239 350.1787 15.06378633  1753
STARLINK-1797           
1 46698U 20073AE  21041.58334491  .00040834  00000-0  27455-2 0  9994
2 46698  53.0536 280.5206 0002557  87.9633 264.8723 15.06384155  1758
STARLINK-1799           
1 46699U 20073AF  21041.91667824 -.00019215  00000-0 -12741-2 0  9994
2 46699  53.0533 279.0257 0002745  80.3755 261.1084 15.06409771 18318
STARLINK-1800           
1 46700U 20073AG  21041.91667824 -.00026410  00000-0 -17601-2 0  9992
2 46700  53.0547 294.0442 0002745  75.7841 243.1967 15.06408044 18135
STARLINK-1801           
1 46701U 20073AH  21041.58334491  .00033607  00000-0  22653-2 0  9994
2 46701  53.0581 280.5302 0002343  81.5630  51.2452 15.06383015  1751
STARLINK-1802           
1 46702U 20073AJ  21041.91667824 -.00411513  00000-0 -77036-2 0  9994
2 46702  53.0541 264.7388 0005773 266.5119 121.7695 15.49577419 18551
STARLINK-1803           
1 46703U 20073AK  21041.91667824 -.00016318  00000-0 -10792-2 0  9995
2 46703  53.0514 279.0319 0002140  87.0223 174.4304 15.06394671 18352
STARLINK-1804           
1 46704U 20073AL  21041.91667824 -.00447854  00000-0 -85150-2 0  9999
2 46704  53.0539 264.7684 0005222 265.7098 105.9366 15.49275542 18556
STARLINK-1805           
1 46705U 20073AM  21041.58334491  .00042444  00000-0  28527-2 0  9993
2 46705  53.0554 295.5399 0002301  74.9599 215.3072 15.06380390  1801
STARLINK-1807           
1 46706U 20073AN  21041.91667824 -.00023130  00000-0 -15381-2 0  9997
2 46706  53.0545 279.0357 0002441  82.6030 358.7778 15.06417989 18363
STARLINK-1808           
1 46707U 20073AP  21041.91667824 -.00460703  00000-0 -86420-2 0  9991
2 46707  53.0535 264.6533 0005951 263.9955 173.0737 15.49694706 18553
STARLINK-1809           
1 46708U 20073AQ  21041.91667824 -.00424227  00000-0 -79253-2 0  9999
2 46708  53.0541 264.7006 0005730 266.3889 149.2373 15.49681548 18556
STARLINK-1810           
1 46709U 20073AR  21041.58334491  .00036922  00000-0  24864-2 0  9991
2 46709  53.0475 295.5504 0002581  76.0407  59.3608 15.06372948  1751
STARLINK-1811           
1 46710U 20073AS  21041.58334491  .00045220  00000-0  30372-2 0  9995
2 46710  53.0544 295.5418 0002723  77.7312 252.4887 15.06375426  1754
STARLINK-1813           
1 46711U 20073AT  21041.58334491  .00034822  00000-0  23471-2 0  9994
2 46711  53.0547 280.5320 0002450  81.0100  31.6968 15.06367899  1756
STARLINK-1814           
1 46712U 20073AU  21041.91667824 -.00017469  00000-0 -11565-2 0  9992
2 46712  53.0525 279.0272 0002420  74.6547 231.9525 15.06404825 18351
STARLINK-1815           
1 46713U 20073AV  21041.58334491  .00033366  00000-0  22499-2 0  9997
2 46713  53.0526 280.5280 0002545  86.6931 146.0975 15.06372500  1808
STARLINK-1816           
1 46714U 20073AW  21041.58334491  .00038035  00000-0  25596-2 0  9997
2 46714  53.0535 280.5224 0002808  73.6649 219.1403 15.06384189  1805
STARLINK-1817           
1 46715U 20073AX  21041.58334491  .00039386  00000-0  26507-2 0  9991
2 46715  53.0527 280.5221 0002104  88.3222 224.5249 15.06366216  1802
STARLINK-1818           
1 46716U 20073AY  21041.58334491  .00037014  00000-0  24917-2 0  9991
2 46716  53.0557 295.5382 0002789  77.8158 152.3116 15.06384708  1751
STARLINK-1820           
1 46717U 20073AZ  21041.58334491  .00032109  00000-0  21664-2 0  9998
2 46717  53.0512 280.5345 0002432  76.2849 136.5229 15.06370375  1801
STARLINK-1821           
1 46718U 20073BA  21041.58334491  .00045863  00000-0  30804-2 0  9996
2 46718  53.0545 295.5399 0002329  78.1275 272.1932 15.06369008  1801
STARLINK-1822           
1 46719U 20073BB  21041.91667824 -.00417454  00000-0 -78186-2 0  9999
2 46719  53.0516 264.7069 0005790 265.8934 141.9864 15.49584926 18556
STARLINK-1823           
1 46720U 20073BC  21041.91667824 -.00004341  00000-0 -54534-4 0  9991
2 46720  53.0533 264.7899 0008511 302.9708  62.5615 15.55856537 18553
STARLINK-1824           
1 46721U 20073BD  21041.91667824 -.00038637  00000-0 -41731-3 0  9991
2 46721  53.0531 263.7531 0004533  10.4030 151.5512 15.62787298 18564
STARLINK-1825           
1 46722U 20073BE  21041.58334491  .00035461  00000-0  23887-2 0  9997
2 46722  53.0534 295.5299 0002166  73.2328 137.0695 15.06381953  1805
STARLINK-1826           
1 46723U 20073BF  21041.91667824 -.00002647  00000-0 -29277-4 0  9997
2 46723  53.0533 264.4658 0007587 296.3655 235.8012 15.56893835 18554
STARLINK-1827           
1 46724U 20073BG  21041.91667824 -.00411706  00000-0 -78303-2 0  9990
2 46724  53.0538 264.7731 0006534 262.1734 106.4523 15.49122346 18559
STARLINK-1828           
1 46725U 20073BH  21041.58334491  .00044738  00000-0  30062-2 0  9990
2 46725  53.0533 295.5403 0002831  75.3638 334.9359 15.06363406  1819
STARLINK-1829           
1 46726U 20073BJ  21041.58334491  .00040359  00000-0  30258-2 0  9993
2 46726  53.0538 280.3949 0002357  43.1636 332.2842 15.02304240  1800
STARLINK-1830           
1 46727U 20073BK  21041.91667824 -.00002631  00000-0 -29003-4 0  9991
2 46727  53.0532 264.4216 0007294 296.6384 252.7620 15.56950955 18554
